{
  "type": "FeatureCollection",
  "features": [
    {
      "type": "Feature",
      "properties": {
        "norad_id": 28054,
        "name": "DMSP 5D-3 F16 (USA 172)",
        "group": "weather",
        "lat": 80.84236428035055,
        "lon": -88.1901811475588,
        "alt_km": 840.9603801654048,
        "timestamp": "2025-12-20T16:47:35.933681+00:00",
        "meta_object_name": "DMSP 5D-3 F16 (USA 172)",
        "meta_object_id": "2003-048A",
        "meta_epoch": "2025-12-20T12:00:36.357120",
        "meta_mean_motion": 14.14426795,
        "meta_eccentricity": 0.0006293,
        "meta_inclination": 99.0038,
        "meta_ra_of_asc_node": 12.0183,
        "meta_arg_of_pericenter": 296.1716,
        "meta_mean_anomaly": 221.1814,
        "meta_ephemeris_type": 0,
        "meta_classification_type": "U",
        "meta_norad_cat_id": 28054,
        "meta_element_set_no": 999,
        "meta_rev_at_epoch": 14422,
        "meta_bstar": 6.5412e-05,
        "meta_mean_motion_dot": 8e-07,
        "meta_mean_motion_ddot": 0,
        "tle_line1": "1 28054U 03048A   25354.50042080  .00000080  00000+0  65412-4 0  9991",
        "tle_line2": "2 28054  99.0038  12.0183 0006293 296.1716 221.1814 14.14426795144222"
      },
      "geometry": {
        "type": "Point",
        "coordinates": [
          -88.1901811475588,
          80.84236428035055
        ]
      }
    },
    {
      "type": "Feature",
      "properties": {
        "norad_id": 28912,
        "name": "METEOSAT-9 (MSG-2)",
        "group": "weather",
        "lat": -4.3201646198233234,
        "lon": 27.178340791081308,
        "alt_km": 35560.077304981256,
        "timestamp": "2025-12-20T16:47:35.933729+00:00",
        "meta_object_name": "METEOSAT-9 (MSG-2)",
        "meta_object_id": "2005-049B",
        "meta_epoch": "2025-12-18T20:21:29.033280",
        "meta_mean_motion": 1.00264866,
        "meta_eccentricity": 0.0082047,
        "meta_inclination": 8.9417,
        "meta_ra_of_asc_node": 55.9014,
        "meta_arg_of_pericenter": 282.314,
        "meta_mean_anomaly": 99.6592,
        "meta_ephemeris_type": 0,
        "meta_classification_type": "U",
        "meta_norad_cat_id": 28912,
        "meta_element_set_no": 999,
        "meta_rev_at_epoch": 519,
        "meta_bstar": 0,
        "meta_mean_motion_dot": 1.45e-06,
        "meta_mean_motion_ddot": 0,
        "tle_line1": "1 28912U 05049B   25352.84825270  .00000145  00000+0  00000+0 0  9991",
        "tle_line2": "2 28912   8.9417  55.9014 0082047 282.3140  99.6592  1.00264866  5196"
      },
      "geometry": {
        "type": "Point",
        "coordinates": [
          27.178340791081308,
          -4.3201646198233234
        ]
      }
    },
    {
      "type": "Feature",
      "properties": {
        "norad_id": 29522,
        "name": "DMSP 5D-3 F17 (USA 191)",
        "group": "weather",
        "lat": 45.193946688628046,
        "lon": -8.985661446213005,
        "alt_km": 845.0013975754346,
        "timestamp": "2025-12-20T16:47:35.933748+00:00",
        "meta_object_name": "DMSP 5D-3 F17 (USA 191)",
        "meta_object_id": "2006-050A",
        "meta_epoch": "2025-12-20T11:29:07.262592",
        "meta_mean_motion": 14.14922835,
        "meta_eccentricity": 0.0009724,
        "meta_inclination": 98.739,
        "meta_ra_of_asc_node": 359.7065,
        "meta_arg_of_pericenter": 201.5272,
        "meta_mean_anomaly": 158.5494,
        "meta_ephemeris_type": 0,
        "meta_classification_type": "U",
        "meta_norad_cat_id": 29522,
        "meta_element_set_no": 999,
        "meta_rev_at_epoch": 98714,
        "meta_bstar": 8.8473e-05,
        "meta_mean_motion_dot": 1.28e-06,
        "meta_mean_motion_ddot": 0,
        "tle_line1": "1 29522U 06050A   25354.47855628  .00000128  00000+0  88473-4 0  9999",
        "tle_line2": "2 29522  98.7390 359.7065 0009724 201.5272 158.5494 14.14922835987148"
      },
      "geometry": {
        "type": "Point",
        "coordinates": [
          -8.985661446213005,
          45.193946688628046
        ]
      }
    },
    {
      "type": "Feature",
      "properties": {
        "norad_id": 32958,
        "name": "FENGYUN 3A",
        "group": "weather",
        "lat": -69.58603549651934,
        "lon": 89.8535886045367,
        "alt_km": 829.6296481652544,
        "timestamp": "2025-12-20T16:47:35.933762+00:00",
        "meta_object_name": "FENGYUN 3A",
        "meta_object_id": "2008-026A",
        "meta_epoch": "2025-12-20T10:32:12.630048",
        "meta_mean_motion": 14.19516831,
        "meta_eccentricity": 0.0007667,
        "meta_inclination": 98.6707,
        "meta_ra_of_asc_node": 293.8039,
        "meta_arg_of_pericenter": 285.6949,
        "meta_mean_anomaly": 74.3382,
        "meta_ephemeris_type": 0,
        "meta_classification_type": "U",
        "meta_norad_cat_id": 32958,
        "meta_element_set_no": 999,
        "meta_rev_at_epoch": 91004,
        "meta_bstar": 5.4616e-05,
        "meta_mean_motion_dot": 7.2e-07,
        "meta_mean_motion_ddot": 0,
        "tle_line1": "1 32958U 08026A   25354.43903507  .00000072  00000+0  54616-4 0  9997",
        "tle_line2": "2 32958  98.6707 293.8039 0007667 285.6949  74.3382 14.19516831910049"
      },
      "geometry": {
        "type": "Point",
        "coordinates": [
          89.8535886045367,
          -69.58603549651934
        ]
      }
    },
    {
      "type": "Feature",
      "properties": {
        "norad_id": 35491,
        "name": "GOES 14",
        "group": "weather",
        "lat": 0.7442265036165395,
        "lon": -133.35216666829757,
        "alt_km": 35833.416443698974,
        "timestamp": "2025-12-20T16:47:35.933776+00:00",
        "meta_object_name": "GOES 14",
        "meta_object_id": "2009-033A",
        "meta_epoch": "2025-12-20T10:08:52.239840",
        "meta_mean_motion": 1.00096886,
        "meta_eccentricity": 5.17e-05,
        "meta_inclination": 1.2226,
        "meta_ra_of_asc_node": 85.3287,
        "meta_arg_of_pericenter": 181.94,
        "meta_mean_anomaly": 219.6031,
        "meta_ephemeris_type": 0,
        "meta_classification_type": "U",
        "meta_norad_cat_id": 35491,
        "meta_element_set_no": 999,
        "meta_rev_at_epoch": 480,
        "meta_bstar": 0,
        "meta_mean_motion_dot": 2.1e-07,
        "meta_mean_motion_ddot": 0,
        "tle_line1": "1 35491U 09033A   25354.42282685  .00000021  00000+0  00000+0 0  9994",
        "tle_line2": "2 35491   1.2226  85.3287 0000517 181.9400 219.6031  1.00096886  4808"
      },
      "geometry": {
        "type": "Point",
        "coordinates": [
          -133.35216666829757,
          0.7442265036165395
        ]
      }
    },
    {
      "type": "Feature",
      "properties": {
        "norad_id": 35951,
        "name": "DMSP 5D-3 F18 (USA 210)",
        "group": "weather",
        "lat": -81.06709393037391,
        "lon": 66.74142716321293,
        "alt_km": 856.2084484433408,
        "timestamp": "2025-12-20T16:47:35.933788+00:00",
        "meta_object_name": "DMSP 5D-3 F18 (USA 210)",
        "meta_object_id": "2009-057A",
        "meta_epoch": "2025-12-20T08:44:08.413728",
        "meta_mean_motion": 14.14773966,
        "meta_eccentricity": 0.0011873,
        "meta_inclination": 98.8842,
        "meta_ra_of_asc_node": 330.7269,
        "meta_arg_of_pericenter": 42.7111,
        "meta_mean_anomaly": 317.4983,
        "meta_ephemeris_type": 0,
        "meta_classification_type": "U",
        "meta_norad_cat_id": 35951,
        "meta_element_set_no": 999,
        "meta_rev_at_epoch": 83430,
        "meta_bstar": 0.00013205,
        "meta_mean_motion_dot": 2.1e-06,
        "meta_mean_motion_ddot": 0,
        "tle_line1": "1 35951U 09057A   25354.36398627  .00000210  00000+0  13205-3 0  9993",
        "tle_line2": "2 35951  98.8842 330.7269 0011873  42.7111 317.4983 14.14773966834301"
      },
      "geometry": {
        "type": "Point",
        "coordinates": [
          66.74142716321293,
          -81.06709393037391
        ]
      }
    },
    {
      "type": "Feature",
      "properties": {
        "norad_id": 36411,
        "name": "EWS-G2 (GOES 15)",
        "group": "weather",
        "lat": -0.5509476171318749,
        "lon": 42.83037633488102,
        "alt_km": 35803.903616994394,
        "timestamp": "2025-12-20T16:47:35.933802+00:00",
        "meta_object_name": "EWS-G2 (GOES 15)",
        "meta_object_id": "2010-008A",
        "meta_epoch": "2025-12-20T05:13:38.472096",
        "meta_mean_motion": 1.00270968,
        "meta_eccentricity": 0.0005466,
        "meta_inclination": 0.8312,
        "meta_ra_of_asc_node": 86.0872,
        "meta_arg_of_pericenter": 177.4109,
        "meta_mean_anomaly": 325.3332,
        "meta_ephemeris_type": 0,
        "meta_classification_type": "U",
        "meta_norad_cat_id": 36411,
        "meta_element_set_no": 999,
        "meta_rev_at_epoch": 5784,
        "meta_bstar": 0,
        "meta_mean_motion_dot": 6.1e-07,
        "meta_mean_motion_ddot": 0,
        "tle_line1": "1 36411U 10008A   25354.21780639  .00000061  00000+0  00000+0 0  9994",
        "tle_line2": "2 36411   0.8312  86.0872 0005466 177.4109 325.3332  1.00270968 57840"
      },
      "geometry": {
        "type": "Point",
        "coordinates": [
          42.83037633488102,
          -0.5509476171318749
        ]
      }
    }
  ]
}